COSMOS 2426 (717)       
1 29671U 06062B   19061.61438208  .00000046  00000-0  10000-3 0  9992
2 29671  65.1710 283.8986 0016479 159.3847  25.2869  2.13103253 94820
COSMOS 2433 (720)       
1 32275U 07052A   19061.70083112 -.00000024  00000-0  10000-3 0  9993
2 32275  65.8079  44.6983 0005300 273.7610 313.5742  2.13104409 88335
COSMOS 2432 (719)       
1 32276U 07052B   19062.54939157 -.00000026  00000-0  10000-3 0  9998
2 32276  65.8205  44.7514 0013094 323.4471 146.1897  2.13103768 88355
COSMOS 2434 (721)       
1 32393U 07065A   19061.50595613  .00000047  00000-0  00000+0 0  9999
2 32393  64.7654 282.6541 0005128  85.8381 239.5096  2.13102853 87038
COSMOS 2436 (723)       
1 32395U 07065C   19061.91491995  .00000048  00000-0  10000-3 0  9990
2 32395  64.7790 282.6907 0017210   4.1639 326.6892  2.13104243 86971
COSMOS 2456 (730)       
1 36111U 09070A   19061.45738709 -.00000040  00000-0  00000+0 0  9992
2 36111  64.1953 162.2739 0003684 325.1526 135.8205  2.13102758 71705
COSMOS 2457 (733)       
1 36112U 09070B   19061.78130091 -.00000038  00000-0  00000+0 0  9996
2 36112  64.1778 162.1680 0005997 162.9507 312.1095  2.13101458 71714
COSMOS 2459 (731)       
1 36400U 10007A   19061.90381590 -.00000027  00000-0  10000-3 0  9997
2 36400  65.7154  43.7218 0027783 345.6953 254.1596  2.13102154 70064
COSMOS 2461 (735)       
1 36401U 10007B   19061.56704640 -.00000026  00000-0  10000-3 0  9994
2 36401  65.7077  43.7048 0005283  41.4817 210.5498  2.13102075 70059
COSMOS 2460 (732)       
1 36402U 10007C   19061.97352944 -.00000027  00000-0  10000-3 0  9997
2 36402  65.6963  43.6570 0002758 289.4198 314.5924  2.13101548 70066
COSMOS 2464 (736)       
1 37139U 10041C   19061.70101343  .00000047  00000-0  00000+0 0  9995
2 37139  64.3724 282.3195 0026526  14.0570 327.9976  2.13100622 66124
COSMOS 2474 (742)       
1 37829U 11055A   19061.65306964 -.00000038  00000-0  00000+0 0  9998
2 37829  64.5178 163.0931 0008011 243.4412 224.5786  2.13101794 57706
COSMOS 2476 (744)       
1 37867U 11064A   19061.82052098 -.00000037  00000-0  00000+0 0  9994
2 37867  64.4976 163.1432 0018051 238.5571  44.0338  2.13101878 57055
COSMOS 2477 (745)       
1 37868U 11064B   19061.55308697 -.00000039  00000-0  00000+0 0  9996
2 37868  64.5058 163.2027 0015704 239.2459  16.9394  2.13101680 57000
COSMOS 2475 (743)       
1 37869U 11064C   19061.38943297 -.00000040  00000-0  00000+0 0  9991
2 37869  64.5134 163.2061 0019744 264.9938 182.6279  2.13101822 57011
COSMOS 2485 (747)       
1 39155U 13019A   19061.75354861 -.00000038  00000-0  00000+0 0  9994
2 39155  64.6665 163.3110 0018561 233.7464  42.2514  2.13101837 45523
COSMOS 2492 (754)       
1 39620U 14012A   19061.63643757 -.00000027  00000-0  10000-3 0  9990
2 39620  65.5880  43.5184 0016346 321.7791 259.3949  2.13103334 38472
COSMOS 2500 (755)       
1 40001U 14032A   19061.83496779 -.00000028  00000-0  00000+0 0  9995
2 40001  65.5296  43.4613 0007024 231.2125   3.9164  2.13102677 36696
COSMOS 2501 (702K)      
1 40315U 14075A   19061.69858289  .00000044  00000-0  00000+0 0  9999
2 40315  64.0924 283.4404 0014502 206.2913  83.1799  2.13098494 33092
COSMOS 2514 (751)       
1 41330U 16008A   19062.41834440 -.00000030  00000-0  00000+0 0  9995
2 41330  65.3316  43.4299 0010648 231.1748 272.9694  2.13103111 23875
COSMOS 2516 (753)       
1 41554U 16032A   19062.16937909  .00000045  00000-0  00000+0 0  9991
2 41554  64.3169 283.3624 0010398 219.3372 344.4829  2.13101626 21476
COSMOS 2522 (752)       
1 42939U 17055A   19061.84689362  .00000046  00000-0  00000+0 0  9997
2 42939  64.5443 283.4161 0005503 254.9608 287.9400  2.13101913 11224
COSMOS 2527 (756)       
1 43508U 18053A   19062.52935223 -.00000030  00000-0  00000+0 0  9999
2 43508  64.8317 163.0338 0006777 229.8055 147.6128  2.13102537  5539
COSMOS 2529 (757)       
1 43687U 18086A   19060.44785247  .00000041  00000-0  00000+0 0  9992
2 43687  64.7608 283.4543 0008334 284.3421 220.9845  2.13101844  2503
